{
  "type": "FeatureCollection",
  "features": [
    {
      "type": "Feature",
      "properties": {
        "norad_id": 66642,
        "name": "STARLINK-35926",
        "group": "last-30-days",
        "lat": -5.687086388808869,
        "lon": -157.75420038521403,
        "alt_km": 368.23777520280964,
        "timestamp": "2025-12-08T17:43:03.633574+00:00",
        "meta_object_name": "STARLINK-35926",
        "meta_object_id": "2025-271AB",
        "meta_epoch": "2025-12-08T06:00:02.999808",
        "meta_mean_motion": 15.69402291,
        "meta_eccentricity": 0.0001076,
        "meta_inclination": 53.1589,
        "meta_ra_of_asc_node": 208.9302,
        "meta_arg_of_pericenter": 72.6638,
        "meta_mean_anomaly": 42.3315,
        "meta_ephemeris_type": 0,
        "meta_classification_type": "U",
        "meta_norad_cat_id": 66642,
        "meta_element_set_no": 999,
        "meta_rev_at_epoch": 328,
        "meta_bstar": -0.018624,
        "meta_mean_motion_dot": -0.01968464,
        "meta_mean_motion_ddot": 0,
        "tle_line1": "1 66642U 25271AB  25342.25003472 -.01968464  00000+0 -18624-1 0  9991",
        "tle_line2": "2 66642  53.1589 208.9302 0001076  72.6638  42.3315 15.69402291  3287"
      },
      "geometry": {
        "type": "Point",
        "coordinates": [
          -157.75420038521403,
          -5.687086388808869
        ]
      }
    },
    {
      "type": "Feature",
      "properties": {
        "norad_id": 66643,
        "name": "STARLINK-35918",
        "group": "last-30-days",
        "lat": -8.73977077616647,
        "lon": -160.08240368063755,
        "alt_km": 368.64005010872097,
        "timestamp": "2025-12-08T17:43:03.633585+00:00",
        "meta_object_name": "STARLINK-35918",
        "meta_object_id": "2025-271AC",
        "meta_epoch": "2025-12-08T06:00:02.999808",
        "meta_mean_motion": 15.69408566,
        "meta_eccentricity": 0.00010277,
        "meta_inclination": 53.1591,
        "meta_ra_of_asc_node": 208.9387,
        "meta_arg_of_pericenter": 73.7179,
        "meta_mean_anomaly": 37.4347,
        "meta_ephemeris_type": 0,
        "meta_classification_type": "U",
        "meta_norad_cat_id": 66643,
        "meta_element_set_no": 999,
        "meta_rev_at_epoch": 352,
        "meta_bstar": -0.018642938,
        "meta_mean_motion_dot": -0.0197065,
        "meta_mean_motion_ddot": 0,
        "tle_line1": "1 66643U 25271AC  25342.25003472 -.01970650  00000+0 -18643-1 0  9993",
        "tle_line2": "2 66643  53.1591 208.9387 0001027  73.7179  37.4347 15.69408566  3520"
      },
      "geometry": {
        "type": "Point",
        "coordinates": [
          -160.08240368063755,
          -8.73977077616647
        ]
      }
    },
    {
      "type": "Feature",
      "properties": {
        "norad_id": 66644,
        "name": "STARLINK-35938",
        "group": "last-30-days",
        "lat": -7.2134391511804745,
        "lon": -158.91323859123,
        "alt_km": 368.40062364474034,
        "timestamp": "2025-12-08T17:43:03.633597+00:00",
        "meta_object_name": "STARLINK-35938",
        "meta_object_id": "2025-271AD",
        "meta_epoch": "2025-12-08T06:00:02.999808",
        "meta_mean_motion": 15.69401559,
        "meta_eccentricity": 9.418e-05,
        "meta_inclination": 53.1592,
        "meta_ra_of_asc_node": 208.9344,
        "meta_arg_of_pericenter": 82.4941,
        "meta_mean_anomaly": 30.5804,
        "meta_ephemeris_type": 0,
        "meta_classification_type": "U",
        "meta_norad_cat_id": 66644,
        "meta_element_set_no": 999,
        "meta_rev_at_epoch": 352,
        "meta_bstar": -0.018562104,
        "meta_mean_motion_dot": -0.01962536,
        "meta_mean_motion_ddot": 0,
        "tle_line1": "1 66644U 25271AD  25342.25003472 -.01962536  00000+0 -18562-1 0  9998",
        "tle_line2": "2 66644  53.1592 208.9344 0000941  82.4941  30.5804 15.69401559  3520"
      },
      "geometry": {
        "type": "Point",
        "coordinates": [
          -158.91323859123,
          -7.2134391511804745
        ]
      }
    },
    {
      "type": "Feature",
      "properties": {
        "norad_id": 66645,
        "name": "SHENZHOU-22",
        "group": "last-30-days",
        "lat": -17.53156578946316,
        "lon": 20.03505411443116,
        "alt_km": 386.77858158330946,
        "timestamp": "2025-12-08T17:43:03.633608+00:00",
        "meta_object_name": "SHENZHOU-22",
        "meta_object_id": "2025-272A",
        "meta_epoch": "2025-12-08T07:04:12.884448",
        "meta_mean_motion": 15.58883062,
        "meta_eccentricity": 0.00091533,
        "meta_inclination": 41.4681,
        "meta_ra_of_asc_node": 43.6887,
        "meta_arg_of_pericenter": 354.9466,
        "meta_mean_anomaly": 5.1278,
        "meta_ephemeris_type": 0,
        "meta_classification_type": "U",
        "meta_norad_cat_id": 66645,
        "meta_element_set_no": 999,
        "meta_rev_at_epoch": 26300,
        "meta_bstar": 0.000309658,
        "meta_mean_motion_dot": 0.00024468,
        "meta_mean_motion_ddot": 0,
        "tle_line1": "1 66645U 25272A   25342.29459357  .00024468  00000+0  30966-3 0  9995",
        "tle_line2": "2 66645  41.4681  43.6887 0009153 354.9466   5.1278 15.58883062263004"
      },
      "geometry": {
        "type": "Point",
        "coordinates": [
          20.03505411443116,
          -17.53156578946316
        ]
      }
    },
    {
      "type": "Feature",
      "properties": {
        "norad_id": 66647,
        "name": "COSMOS 2597 (RODNIK-S 22)",
        "group": "last-30-days",
        "lat": -46.294312175631575,
        "lon": 116.85716539607063,
        "alt_km": 1503.0476674791016,
        "timestamp": "2025-12-08T17:43:03.633626+00:00",
        "meta_object_name": "COSMOS 2597 (RODNIK-S 22)",
        "meta_object_id": "2025-273A",
        "meta_epoch": "2025-12-08T06:49:57.902016",
        "meta_mean_motion": 12.41951178,
        "meta_eccentricity": 0.0007989,
        "meta_inclination": 82.4983,
        "meta_ra_of_asc_node": 289.2156,
        "meta_arg_of_pericenter": 299.7716,
        "meta_mean_anomaly": 60.2569,
        "meta_ephemeris_type": 0,
        "meta_classification_type": "U",
        "meta_norad_cat_id": 66647,
        "meta_element_set_no": 999,
        "meta_rev_at_epoch": 158,
        "meta_bstar": 0.00014810377,
        "meta_mean_motion_dot": 3e-07,
        "meta_mean_motion_ddot": 0,
        "tle_line1": "1 66647U 25273A   25342.28469794  .00000030  00000+0  14810-3 0  9992",
        "tle_line2": "2 66647  82.4983 289.2156 0007989 299.7716  60.2569 12.41951178  1583"
      },
      "geometry": {
        "type": "Point",
        "coordinates": [
          116.85716539607063,
          -46.294312175631575
        ]
      }
    },
    {
      "type": "Feature",
      "properties": {
        "norad_id": 66648,
        "name": "COSMOS 2598 (RODNIK-S 23)",
        "group": "last-30-days",
        "lat": -65.87211838961835,
        "lon": 126.03374612850352,
        "alt_km": 1496.1620324073056,
        "timestamp": "2025-12-08T17:43:03.633637+00:00",
        "meta_object_name": "COSMOS 2598 (RODNIK-S 23)",
        "meta_object_id": "2025-273B",
        "meta_epoch": "2025-12-08T06:43:57.189792",
        "meta_mean_motion": 12.42861554,
        "meta_eccentricity": 0.00072511,
        "meta_inclination": 82.503,
        "meta_ra_of_asc_node": 289.2226,
        "meta_arg_of_pericenter": 262.0516,
        "meta_mean_anomaly": 97.9741,
        "meta_ephemeris_type": 0,
        "meta_classification_type": "U",
        "meta_norad_cat_id": 66648,
        "meta_element_set_no": 999,
        "meta_rev_at_epoch": 158,
        "meta_bstar": 8.0317445e-05,
        "meta_mean_motion_dot": 2.1e-07,
        "meta_mean_motion_ddot": 0,
        "tle_line1": "1 66648U 25273B   25342.28052303  .00000021  00000+0  80317-4 0  9993",
        "tle_line2": "2 66648  82.5030 289.2226 0007251 262.0516  97.9741 12.42861554  1587"
      },
      "geometry": {
        "type": "Point",
        "coordinates": [
          126.03374612850352,
          -65.87211838961835
        ]
      }
    },
    {
      "type": "Feature",
      "properties": {
        "norad_id": 66649,
        "name": "COSMOS 2599 (RODNIK-S 24)",
        "group": "last-30-days",
        "lat": -33.35118722534685,
        "lon": 113.92119988114418,
        "alt_km": 1506.1169307123746,
        "timestamp": "2025-12-08T17:43:03.633648+00:00",
        "meta_object_name": "COSMOS 2599 (RODNIK-S 24)",
        "meta_object_id": "2025-273C",
        "meta_epoch": "2025-12-08T06:54:03.459456",
        "meta_mean_motion": 12.41671803,
        "meta_eccentricity": 0.0008214,
        "meta_inclination": 82.5017,
        "meta_ra_of_asc_node": 289.2284,
        "meta_arg_of_pericenter": 310.1477,
        "meta_mean_anomaly": 49.8882,
        "meta_ephemeris_type": 0,
        "meta_classification_type": "U",
        "meta_norad_cat_id": 66649,
        "meta_element_set_no": 999,
        "meta_rev_at_epoch": 158,
        "meta_bstar": -1.6150005e-05,
        "meta_mean_motion_dot": 8e-08,
        "meta_mean_motion_ddot": 0,
        "tle_line1": "1 66649U 25273C   25342.28754004  .00000008  00000+0 -16150-4 0  9991",
        "tle_line2": "2 66649  82.5017 289.2284 0008214 310.1477  49.8882 12.41671803  1585"
      },
      "geometry": {
        "type": "Point",
        "coordinates": [
          113.92119988114418,
          -33.35118722534685
        ]
      }
    }
  ]
}